[{"OBJECT_NAME":"STARLINK-5842","OBJECT_ID":"2023-064AV","EPOCH":"2026-03-09T11:55:29.925696","MEAN_MOTION":14.98329375,"ECCENTRICITY":0.00029733,"INCLINATION":69.9993,"RA_OF_ASC_NODE":104.9449,"ARG_OF_PERICENTER":261.9443,"MEAN_ANOMALY":98.1379,"EPHEMERIS_TYPE":0,"CLASSIFICATION_TYPE":"U","NORAD_CAT_ID":56491,"ELEMENT_SET_NO":999,"REV_AT_EPOCH":15620,"BSTAR":-1.9688752e-5,"MEAN_MOTION_DOT":-3.28e-6,"MEAN_MOTION_DDOT":0},{"OBJECT_NAME":"CZ-4C R\/B","OBJECT_ID":"2021-079B","EPOCH":"2026-03-09T14:04:29.438112","MEAN_MOTION":15.08928015,"ECCENTRICITY":0.0108377,"INCLINATION":98.3883,"RA_OF_ASC_NODE":282.6111,"ARG_OF_PERICENTER":26.1585,"MEAN_ANOMALY":334.506,"EPHEMERIS_TYPE":0,"CLASSIFICATION_TYPE":"U","NORAD_CAT_ID":49123,"ELEMENT_SET_NO":999,"REV_AT_EPOCH":24640,"BSTAR":0.00023549,"MEAN_MOTION_DOT":4.178e-5,"MEAN_MOTION_DDOT":0}]
